[{"OBJECT_NAME":"PLEIADES 1A","OBJECT_ID":"2011-076F","EPOCH":"2026-03-09T22:28:30.112032","MEAN_MOTION":14.5854003,"ECCENTRICITY":0.00017089,"INCLINATION":98.204,"RA_OF_ASC_NODE":145.3465,"ARG_OF_PERICENTER":88.1046,"MEAN_ANOMALY":20.7914,"EPHEMERIS_TYPE":0,"CLASSIFICATION_TYPE":"U","NORAD_CAT_ID":38012,"ELEMENT_SET_NO":999,"REV_AT_EPOCH":75752,"BSTAR":9.8090711e-5,"MEAN_MOTION_DOT":4.1e-6,"MEAN_MOTION_DDOT":0},{"OBJECT_NAME":"COSMOS 2251 DEB","OBJECT_ID":"1993-036BCZ","EPOCH":"2026-03-09T22:05:49.572096","MEAN_MOTION":14.59948408,"ECCENTRICITY":0.00269485,"INCLINATION":74.0213,"RA_OF_ASC_NODE":248.781,"ARG_OF_PERICENTER":7.4262,"MEAN_ANOMALY":352.7296,"EPHEMERIS_TYPE":0,"CLASSIFICATION_TYPE":"U","NORAD_CAT_ID":36539,"ELEMENT_SET_NO":999,"REV_AT_EPOCH":85219,"BSTAR":0.00075100833,"MEAN_MOTION_DOT":3.59e-5,"MEAN_MOTION_DDOT":0}]
